[{"OBJECT_NAME":"STARLINK-1681","OBJECT_ID":"2020-070AD","EPOCH":"2026-03-10T00:00:02.999808","MEAN_MOTION":15.77686848,"ECCENTRICITY":0.00086189,"INCLINATION":53.0491,"RA_OF_ASC_NODE":72.8238,"ARG_OF_PERICENTER":15.0896,"MEAN_ANOMALY":335.2211,"EPHEMERIS_TYPE":0,"CLASSIFICATION_TYPE":"U","NORAD_CAT_ID":46559,"ELEMENT_SET_NO":999,"REV_AT_EPOCH":597,"BSTAR":0.0010315887,"MEAN_MOTION_DOT":0.00179651,"MEAN_MOTION_DDOT":0},{"OBJECT_NAME":"CZ-2F DEB","OBJECT_ID":"2026-024E","EPOCH":"2026-03-09T06:46:05.636352","MEAN_MOTION":15.25893319,"ECCENTRICITY":0.0230643,"INCLINATION":50.3206,"RA_OF_ASC_NODE":20.6889,"ARG_OF_PERICENTER":278.3013,"MEAN_ANOMALY":79.1857,"EPHEMERIS_TYPE":0,"CLASSIFICATION_TYPE":"U","NORAD_CAT_ID":67718,"ELEMENT_SET_NO":999,"REV_AT_EPOCH":457,"BSTAR":0.0044193489,"MEAN_MOTION_DOT":0.00260029,"MEAN_MOTION_DDOT":0}]
